      2.10          N: GNSS NAV DATA                        RINEX VERSION / TYPE
fic2rin                                 11/10/2019 00:19:49 PGM / RUN BY / DATE
                                                            END OF HEADER
 4 19 11 10  0  0  0.0-7.410068064928e-06-3.865352482535e-12 0.000000000000e+00
    7.000000000000e+00-2.531250000000e+01 4.452328314488e-09 2.044811572415e+00
   -1.320615410805e-06 1.316268229857e-03 1.117773354053e-05 5.150606790543e+03
    0.000000000000e+00 4.470348358154e-08 2.419602200544e+00 2.048909664154e-08
    9.600301089704e-01 1.687500000000e+02-1.282182855560e+00-7.889614348391e-09
   -2.532248335450e-10 1.000000000000e+00 2.079000000000e+03 0.000000000000e+00
    4.850000000000e+00 6.300000000000e+01-4.190951585770e-09 2.630000000000e+02
   -7.200000000000e+03 4.000000000000e+00
22 19 11 10  0  0  0.0-7.705409079790e-04-2.728484105319e-12 0.000000000000e+00
    3.300000000000e+01-8.218750000000e+00 5.598447483524e-09-2.103898204582e+00
   -2.477318048477e-07 6.865098373964e-03 3.291293978691e-06 5.153649066925e+03
    0.000000000000e+00 7.636845111847e-08 1.262035120600e+00 1.695007085800e-07
    9.283488946463e-01 2.960312500000e+02-1.267588088452e+00-8.671432628547e-09
    2.607251459631e-11 1.000000000000e+00 2.079000000000e+03 0.000000000000e+00
    2.400000000000e+00 0.000000000000e+00-1.816079020500e-08 3.300000000000e+01
   -7.200000000000e+03 4.000000000000e+00
31 19 11 10  0  0  0.0-2.129934728146e-06-2.614797267597e-12 0.000000000000e+00
    7.900000000000e+01 1.024687500000e+02 4.674480425158e-09 1.937594519972e+00
    5.528330802917e-06 9.514694567770e-03 8.363276720047e-06 5.153734712601e+03
    0.000000000000e+00 0.000000000000e+00-2.820614627292e+00 2.011656761169e-07
    9.592529088711e-01 2.178750000000e+02 5.794978828700e-02-8.193912737927e-09
    3.135844906242e-10 1.000000000000e+00 2.079000000000e+03 0.000000000000e+00
    2.400000000000e+00 0.000000000000e+00-1.350417733192e-08 7.900000000000e+01
   -7.200000000000e+03 4.000000000000e+00
25 19 11 10  0  0  0.0-1.694634556770e-05-4.547473508865e-13 0.000000000000e+00
    8.700000000000e+01-1.787500000000e+01 4.858059500535e-09 1.246647248548e+00
   -9.331852197647e-07 8.557505672798e-03 2.816319465637e-06 5.153632797241e+03
    0.000000000000e+00-1.527369022369e-07-1.798513666399e+00 1.434236764908e-07
    9.678923793226e-01 3.295625000000e+02 8.883631771493e-01-8.560713730946e-09
   -2.403671551140e-10 1.000000000000e+00 2.079000000000e+03 0.000000000000e+00
    2.400000000000e+00 0.000000000000e+00 5.587935447693e-09 8.700000000000e+01
   -7.200000000000e+03 4.000000000000e+00
13 19 11 10  0  0  0.0-3.379071131349e-05 2.273736754432e-12 0.000000000000e+00
    9.500000000000e+01-5.937500000000e-01 4.196246219070e-09-2.053669275134e+00
   -1.359730958939e-07 4.024473601021e-03 1.141428947449e-05 5.153670539856e+03
    0.000000000000e+00 7.450580596924e-08 2.512929297866e+00-1.676380634308e-08
    9.680925006642e-01 1.615000000000e+02 1.192039860879e+00-7.713535585433e-09
   -1.932223342001e-10 1.000000000000e+00 2.079000000000e+03 0.000000000000e+00
    2.400000000000e+00 0.000000000000e+00-1.117587089539e-08 9.500000000000e+01
   -7.200000000000e+03 4.000000000000e+00
23 19 11 10  0  0  0.0-1.564738340676e-04 2.273736754432e-12 0.000000000000e+00
    7.700000000000e+01-3.537500000000e+01 4.714839249123e-09-2.600974889341e+00
   -2.108514308929e-06 1.323917496484e-02 1.091137528419e-05 5.153732036591e+03
    0.000000000000e+00 1.452863216400e-07 2.366490629056e+00-1.322478055954e-07
    9.434590170722e-01 1.581562500000e+02-2.222016542194e+00-7.881042562771e-09
   -2.082229590363e-10 1.000000000000e+00 2.079000000000e+03 0.000000000000e+00
    2.400000000000e+00 0.000000000000e+00-2.048909664154e-08 7.700000000000e+01
   -7.200000000000e+03 4.000000000000e+00
19 19 11 10  0  0  0.0-2.419450320303e-04 5.229594535194e-12 0.000000000000e+00
    5.500000000000e+01-6.640625000000e+01 3.781586089668e-09 1.484296040556e+00
   -3.753229975700e-06 9.228177834302e-03 1.050345599651e-05 5.153661186218e+03
    0.000000000000e+00-1.862645149231e-09-6.520988776443e-01-2.142041921616e-07
    9.824259028279e-01 1.932187500000e+02 1.526183536927e+00-7.692820436849e-09
   -2.689397738497e-10 1.000000000000e+00 2.079000000000e+03 0.000000000000e+00
    2.400000000000e+00 0.000000000000e+00-1.536682248116e-08 5.500000000000e+01
   -7.200000000000e+03 4.000000000000e+00
15 19 11 10  0  0  0.0-2.737841568887e-04 2.728484105319e-12 0.000000000000e+00
    8.500000000000e+01-3.743750000000e+01 5.140571268284e-09-2.064914628394e+00
   -2.251937985420e-06 1.198374270461e-02 9.959563612938e-06 5.153595775604e+03
    0.000000000000e+00 1.508742570877e-07 2.288904966216e+00-7.078051567078e-08
    9.280892442423e-01 1.641562500000e+02 8.360463520007e-01-8.146767917013e-09
   -2.107230631757e-10 1.000000000000e+00 2.079000000000e+03 0.000000000000e+00
    2.400000000000e+00 0.000000000000e+00-1.117587089539e-08 8.500000000000e+01
   -7.200000000000e+03 4.000000000000e+00
14 19 11 10  0  0  0.0-5.139224231243e-05 2.160049916711e-12 0.000000000000e+00
    5.300000000000e+01-1.303125000000e+01 4.353395622116e-09-1.476636426783e+00
   -5.122274160385e-07 1.074416632764e-02 1.206807792187e-05 5.153766872406e+03
    0.000000000000e+00 1.937150955200e-07 2.467387856380e+00 1.918524503708e-07
    9.606325620421e-01 1.436562500000e+02-1.934901040555e+00-7.813539751008e-09
   -2.657253542419e-10 1.000000000000e+00 2.079000000000e+03 0.000000000000e+00
    2.400000000000e+00 0.000000000000e+00-9.778887033463e-09 5.300000000000e+01
   -7.200000000000e+03 4.000000000000e+00
11 19 11 10  0  0  0.0-4.527983255684e-04 1.114131009672e-11 0.000000000000e+00
    5.900000000000e+01-7.437500000000e+00 5.257361847366e-09 2.115525350202e+00
   -2.142041921616e-07 1.643339416478e-02 1.054815948009e-05 5.153742456436e+03
    0.000000000000e+00 2.495944499969e-07-1.617387043348e-01 7.450580596924e-08
    9.114540970131e-01 1.452812500000e+02 1.967726392868e+00-8.078550789781e-09
    1.078616357272e-10 1.000000000000e+00 2.079000000000e+03 0.000000000000e+00
    2.400000000000e+00 0.000000000000e+00-1.210719347000e-08 5.900000000000e+01
   -7.200000000000e+03 4.000000000000e+00
21 19 11 10  0  0  0.0-8.861906826496e-05 6.025402399246e-12 0.000000000000e+00
    8.800000000000e+01 3.509375000000e+01 4.788770900101e-09 1.072735658466e+00
    1.417472958565e-06 2.454042306636e-02 9.657815098763e-06 5.153622268677e+03
    0.000000000000e+00-1.750886440277e-07 2.308603986165e-01-5.215406417847e-07
    9.508566163661e-01 1.930937500000e+02-1.398757227967e+00-8.425708107420e-09
    4.732339978098e-10 1.000000000000e+00 2.079000000000e+03 0.000000000000e+00
    2.400000000000e+00 0.000000000000e+00-1.024454832077e-08 8.800000000000e+01
   -7.200000000000e+03 4.000000000000e+00
29 19 11 10  0  0  0.0 4.846742376685e-05-1.000444171950e-11 0.000000000000e+00
    6.300000000000e+01-6.071875000000e+01 3.684082028233e-09-1.013733246493e+00
   -3.252178430557e-06 1.083682989702e-03 1.139380037785e-05 5.153676395416e+03
    0.000000000000e+00-9.313225746155e-09-6.866212237071e-01 2.048909664154e-08
    9.859606800999e-01 1.722500000000e+02 2.061503043454e+00-7.641746880859e-09
   -2.532248335450e-10 1.000000000000e+00 2.079000000000e+03 0.000000000000e+00
    2.400000000000e+00 0.000000000000e+00-9.778887033463e-09 6.300000000000e+01
   -7.200000000000e+03 4.000000000000e+00
17 19 11 10  0  0  0.0 1.600664108992e-04 7.048583938740e-12 0.000000000000e+00
    5.700000000000e+01-5.871875000000e+01 3.832659645658e-09-1.247627533860e+00
   -2.959743142128e-06 1.334060891531e-02 1.026690006256e-05 5.153600786209e+03
    0.000000000000e+00-6.705522537231e-08-6.980279938849e-01 3.334134817123e-07
    9.844007222757e-01 1.972500000000e+02-1.692719115997e+00-7.794253233361e-09
   -2.942979729776e-10 1.000000000000e+00 2.079000000000e+03 0.000000000000e+00
    2.400000000000e+00 0.000000000000e+00-1.117587089539e-08 5.700000000000e+01
   -7.200000000000e+03 4.000000000000e+00
32 19 11 10  0  0  0.0 1.198500394821e-04 1.227817847393e-11 0.000000000000e+00
    4.700000000000e+01-2.975000000000e+01 4.529117227341e-09-4.018012541207e-01
   -1.473352313042e-06 3.268964588642e-03 1.173838973045e-05 5.153651655197e+03
    0.000000000000e+00 2.235174179077e-08 2.380653807535e+00 3.539025783539e-08
    9.568583299502e-01 1.515312500000e+02-2.539118438303e+00-7.990689987169e-09
   -3.285851154604e-10 1.000000000000e+00 2.079000000000e+03 0.000000000000e+00
    2.400000000000e+00 0.000000000000e+00 4.656612873077e-10 4.700000000000e+01
   -7.200000000000e+03 4.000000000000e+00
24 19 11 10  0  0  0.0-4.652887582779e-06-4.547473508865e-13 0.000000000000e+00
    1.490000000000e+02 1.069687500000e+02 4.970564186807e-09-3.095231518622e+00
    5.396082997322e-06 9.012236259878e-03 8.663162589073e-06 5.153677091599e+03
    0.000000000000e+00-4.656612873077e-08-2.904091067713e+00-9.685754776001e-08
    9.380090050059e-01 2.015625000000e+02 6.199518277792e-01-8.171768958406e-09
    3.789443559820e-10 1.000000000000e+00 2.079000000000e+03 0.000000000000e+00
    2.400000000000e+00 0.000000000000e+00 2.793967723846e-09 1.490000000000e+02
   -7.200000000000e+03 4.000000000000e+00
30 19 11 10  0  0  0.0-8.036941289902e-05-8.412825991400e-12 0.000000000000e+00
    9.800000000000e+01 9.534375000000e+01 5.099855286586e-09 2.210209899451e+00
    4.995614290237e-06 4.169597639702e-03 7.499009370804e-06 5.153736791611e+03
    0.000000000000e+00-1.657754182816e-07-2.809674769363e+00 5.215406417847e-08
    9.401362005378e-01 2.253750000000e+02-2.907488359943e+00-8.369277185417e-09
    3.839445642608e-10 1.000000000000e+00 2.079000000000e+03 0.000000000000e+00
    2.400000000000e+00 0.000000000000e+00 3.725290298462e-09 9.800000000000e+01
   -7.200000000000e+03 4.000000000000e+00
